OBJECT_NAME,OBJECT_ID,EPOCH,MEAN_MOTION,ECCENTRICITY,INCLINATION,RA_OF_ASC_NODE,ARG_OF_PERICENTER,MEAN_ANOMALY,EPHEMERIS_TYPE,CLASSIFICATION_TYPE,NORAD_CAT_ID,ELEMENT_SET_NO,REV_AT_EPOCH,BSTAR,MEAN_MOTION_DOT,MEAN_MOTION_DDOT
NIMIQ 2,2002-062A,2026-07-04T04:48:48.207744,1.00272081,.00055466,9.4826,56.7151,44.0231,144.4959,0,U,27632,999,4435,0,-.61E-6,0
USA 167,2003-008A,2026-07-03T06:26:38.764608,1.00272289,.00033478,10.9909,43.2613,316.9630,256.0432,0,U,27691,999,693,0,.1E-6,0
USA 169 (MILSTAR-2 4),2003-012A,2026-07-03T22:05:55.711680,1.00271067,.01001063,12.3732,29.7008,10.0266,5.8389,0,U,27711,999,3312,0,-.229E-5,0
ASIASAT 4,2003-014A,2026-07-03T19:04:15.511872,1.00272644,.00028565,4.7457,75.5377,26.4786,253.4018,0,U,27718,999,4546,0,-.213E-5,0
HELLAS-SAT 2,2003-020A,2026-07-04T00:09:11.143008,1.00272056,.00032639,7.3936,67.6832,62.2597,144.3526,0,U,27811,999,4301,0,-.76E-6,0
THURAYA-2,2003-026A,2026-07-04T05:32:09.373920,1.00271440,.00027508,8.8653,31.8996,17.6073,359.7855,0,U,27825,999,8452,0,.133E-5,0
OPTUS C1,2003-028B,2026-07-03T21:31:14.125728,1.00271206,.00056084,6.9286,69.2078,30.0667,301.2116,0,U,27831,999,5322,0,-.143E-5,0
USA 170,2003-040A,2026-07-02T20:28:10.431264,1.00272797,.00017181,10.5312,47.7972,42.7502,161.5742,0,U,27875,999,3315,0,.132E-5,0
GALAXY 13 (HORIZONS-1),2003-044A,2026-07-04T01:11:57.624864,1.00272934,.00017134,1.4620,83.6474,16.6797,49.7047,0,U,27954,999,4674,0,.144E-5,0
YAMAL 202,2003-053A,2026-07-03T11:17:21.352992,1.00271894,.00033268,6.3836,70.7415,23.5484,160.0857,0,U,28089,999,8286,0,-.72E-6,0
UFO 11 (USA 174),2003-057A,2026-07-04T02:19:38.788608,1.00272695,.00029059,8.9400,33.7406,84.9794,273.9248,0,U,28117,999,8261,0,-.97E-6,0
USA 176 (DSP 22),2004-004A,2026-07-03T10:16:44.752800,1.00271130,.00008266,12.0828,25.9458,310.8356,49.5852,0,U,28158,999,3309,0,-.289E-5,0
ABS-4 (MOBISAT-1),2004-007A,2026-07-04T05:37:23.871648,1.00270685,.00045348,6.0836,71.7999,31.3628,324.3722,0,U,28184,999,5250,0,.49E-6,0
INTELSAT 10-02,2004-022A,2026-07-04T05:19:40.570176,1.00270014,.00001822,0.0397,261.8222,278.3876,180.9405,0,U,28358,999,8072,0,.1E-7,0
ANIK F2,2004-027A,2026-07-04T04:20:17.034144,1.00271793,.00039982,3.3286,79.2232,22.1388,134.7828,0,U,28378,999,4143,0,-.39E-6,0
AMC-15,2004-041A,2026-07-02T15:11:36.377952,1.00271839,.00024834,0.0151,352.5863,110.1812,300.7536,0,U,28446,999,7945,0,-.78E-6,0
NSS-10,2005-003A,2026-07-04T03:54:26.322624,1.00272469,.0002999,6.4892,70.2484,30.9126,202.1771,0,U,28526,999,5332,0,-.242E-5,0
INMARSAT 4-F1,2005-009A,2026-07-03T21:37:28.528032,1.00271768,.00028742,5.1885,42.7715,63.3071,318.3239,0,U,28628,999,7784,0,.42E-6,0
DIRECTV 8,2005-019A,2026-07-04T04:46:03.472320,1.00269824,.00032502,0.0198,38.7782,79.7793,116.1235,0,U,28659,999,7724,0,0,0
GALAXY 28 (G-28),2005-022A,2026-07-02T18:59:10.716000,1.00270423,.0002601,3.3367,78.7516,16.9040,82.8679,0,U,28702,999,5213,0,-.191E-5,0
THAICOM 4,2005-028A,2026-07-03T14:30:13.190976,1.00270409,.00018534,0.2853,85.6829,5.7099,167.2954,0,U,28786,999,5241,0,-.351E-5,0
ANIK F1R,2005-036A,2026-07-04T04:49:25.648320,1.00271907,.00041837,4.3534,76.3730,16.2092,154.6908,0,U,28868,999,4662,0,-.65E-6,0
SYRACUSE 3A,2005-041B,2026-07-04T03:00:38.581920,1.00269188,.00027368,4.6845,75.6297,17.2174,281.0971,0,U,28885,999,7591,0,.139E-5,0
INMARSAT 4-F2,2005-044A,2026-07-03T13:07:51.549888,1.00269985,.00031195,5.1157,43.6643,50.9964,167.3520,0,U,28899,999,7568,0,-.252E-5,0
METEOSAT-9 (MSG-2),2005-049B,2026-07-03T17:34:30.353664,1.00267681,.00024606,9.3963,54.0026,0.5032,176.6249,0,U,28912,999,716,0,.132E-5,0
EUTELSAT 174A,2005-052A,2026-07-03T21:36:21.136032,1.00269410,.00061159,4.2582,76.3250,27.5980,316.0870,0,U,28924,999,5249,0,.18E-6,0
ECHOSTAR 10,2006-003A,2026-07-04T04:48:33.232032,1.00272292,.00015997,0.0285,316.2187,110.7769,177.1782,0,U,28935,999,7463,0,-.44E-6,0
SPAINSAT,2006-007A,2026-07-03T07:15:38.083968,1.00273001,.00050245,0.6024,86.2921,13.6601,260.1006,0,U,28945,999,7438,0,-.206E-5,0
JCSAT-5A,2006-010A,2026-07-04T05:57:42.503904,1.00272138,.00020562,1.1510,84.0570,9.8159,49.8629,0,U,29045,999,7394,0,-.316E-5,0
ASTRA 1KR,2006-012A,2026-07-04T05:25:25.020192,1.00271980,.00036172,0.5151,83.2311,13.9682,285.3839,0,U,29055,999,4586,0,.131E-5,0
GALAXY 16 (G-16),2006-023A,2026-07-04T04:51:47.920608,1.00271531,.00026734,0.0257,135.6290,324.4587,156.0812,0,U,29236,999,7314,0,-.115E-5,0
EUTELSAT 33F,2006-032A,2026-07-04T05:29:24.637632,1.00273488,.00036238,1.7028,82.0661,20.7124,294.8974,0,U,29270,999,4747,0,.167E-5,0
