NIMIQ 2                 
1 27632U 02062A   26185.20055796 -.00000061  00000+0  00000+0 0  9992
2 27632   9.4826  56.7151 0005546  44.0231 144.4959  1.00272081 44353
USA 167                 
1 27691U 03008A   26184.26850422  .00000010  00000+0  00000+0 0  9995
2 27691  10.9909  43.2613 0003347 316.9630 256.0432  1.00272289  6930
USA 169 (MILSTAR-2 4)   
1 27711U 03012A   26184.92078370 -.00000229  00000+0  00000+0 0  9993
2 27711  12.3732  29.7008 0100106  10.0266   5.8389  1.00271067 33123
ASIASAT 4               
1 27718U 03014A   26184.79462398 -.00000213  00000+0  00000+0 0  9997
2 27718   4.7457  75.5377 0002856  26.4786 253.4018  1.00272644 45460
HELLAS-SAT 2            
1 27811U 03020A   26185.00637897 -.00000076  00000+0  00000+0 0  9998
2 27811   7.3936  67.6832 0003263  62.2597 144.3526  1.00272056 43012
THURAYA-2               
1 27825U 03026A   26185.23066405  .00000133  00000+0  00000+0 0  9998
2 27825   8.8653  31.8996 0002750  17.6073 359.7855  1.00271440 84520
OPTUS C1                
1 27831U 03028B   26184.89669127 -.00000143  00000+0  00000+0 0  9990
2 27831   6.9286  69.2078 0005608  30.0667 301.2116  1.00271206 53222
USA 170                 
1 27875U 03040A   26183.85289851  .00000132  00000+0  00000+0 0  9996
2 27875  10.5312  47.7972 0001718  42.7502 161.5742  1.00272797 33159
GALAXY 13 (HORIZONS-1)  
1 27954U 03044A   26185.04997251  .00000144  00000+0  00000+0 0  9994
2 27954   1.4620  83.6474 0001713  16.6797  49.7047  1.00272934 46742
YAMAL 202               
1 28089U 03053A   26184.47038603 -.00000072  00000+0  00000+0 0  9998
2 28089   6.3836  70.7415 0003326  23.5484 160.0857  1.00271894 82862
UFO 11 (USA 174)        
1 28117U 03057A   26185.09697672 -.00000097  00000+0  00000+0 0  9997
2 28117   8.9400  33.7406 0002905  84.9794 273.9248  1.00272695 82616
USA 176 (DSP 22)        
1 28158U 04004A   26184.42829575 -.00000289  00000+0  00000+0 0  9993
2 28158  12.0828  25.9458 0000826 310.8356  49.5852  1.00271130 33095
ABS-4 (MOBISAT-1)       
1 28184U 04007A   26185.23430407  .00000049  00000+0  00000+0 0  9990
2 28184   6.0836  71.7999 0004534  31.3628 324.3722  1.00270685 52503
INTELSAT 10-02          
1 28358U 04022A   26185.22199734  .00000001  00000+0  00000+0 0  9992
2 28358   0.0397 261.8222 0000182 278.3876 180.9405  1.00270014 80721
ANIK F2                 
1 28378U 04027A   26185.18075271 -.00000039  00000+0  00000+0 0  9995
2 28378   3.3286  79.2232 0003998  22.1388 134.7828  1.00271793 41435
AMC-15                  
1 28446U 04041A   26183.63305993 -.00000078  00000+0  00000+0 0  9995
2 28446   0.0151 352.5863 0002483 110.1812 300.7536  1.00271839 79456
NSS-10                  
1 28526U 05003A   26185.16280466 -.00000242  00000+0  00000+0 0  9993
2 28526   6.4892  70.2484 0002999  30.9126 202.1771  1.00272469 53323
INMARSAT 4-F1           
1 28628U 05009A   26184.90102463  .00000042  00000+0  00000+0 0  9990
2 28628   5.1885  42.7715 0002874  63.3071 318.3239  1.00271768 77849
DIRECTV 8               
1 28659U 05019A   26185.19865130  .00000000  00000+0  00000+0 0  9998
2 28659   0.0198  38.7782 0003250  79.7793 116.1235  1.00269824 77248
GALAXY 28 (G-28)        
1 28702U 05022A   26183.79109625 -.00000191  00000+0  00000+0 0  9997
2 28702   3.3367  78.7516 0002601  16.9040  82.8679  1.00270423 52136
THAICOM 4               
1 28786U 05028A   26184.60431934 -.00000351  00000+0  00000+0 0  9995
2 28786   0.2853  85.6829 0001853   5.7099 167.2954  1.00270409 52415
ANIK F1R                
1 28868U 05036A   26185.20099130 -.00000065  00000+0  00000+0 0  9992
2 28868   4.3534  76.3730 0004183  16.2092 154.6908  1.00271907 46623
SYRACUSE 3A             
1 28885U 05041B   26185.12544655  .00000139  00000+0  00000+0 0  9996
2 28885   4.6845  75.6297 0002736  17.2174 281.0971  1.00269188 75911
INMARSAT 4-F2           
1 28899U 05044A   26184.54712442 -.00000252  00000+0  00000+0 0  9997
2 28899   5.1157  43.6643 0003119  50.9964 167.3520  1.00269985 75680
METEOSAT-9 (MSG-2)      
1 28912U 05049B   26184.73229576  .00000132  00000+0  00000+0 0  9996
2 28912   9.3963  54.0026 0002460   0.5032 176.6249  1.00267681  7163
EUTELSAT 174A           
1 28924U 05052A   26184.90024463  .00000018  00000+0  00000+0 0  9993
2 28924   4.2582  76.3250 0006115  27.5980 316.0870  1.00269410 52493
ECHOSTAR 10             
1 28935U 06003A   26185.20038463 -.00000044  00000+0  00000+0 0  9991
2 28935   0.0285 316.2187 0001599 110.7769 177.1782  1.00272292 74635
SPAINSAT                
1 28945U 06007A   26184.30252412 -.00000206  00000+0  00000+0 0  9998
2 28945   0.6024  86.2921 0005024  13.6601 260.1006  1.00273001 74389
JCSAT-5A                
1 29045U 06010A   26185.24840861 -.00000316  00000+0  00000+0 0  9991
2 29045   1.1510  84.0570 0002056   9.8159  49.8629  1.00272138 73944
ASTRA 1KR               
1 29055U 06012A   26185.22598403  .00000131  00000+0  00000+0 0  9998
2 29055   0.5151  83.2311 0003617  13.9682 285.3839  1.00271980 45868
GALAXY 16 (G-16)        
1 29236U 06023A   26185.20263797 -.00000115  00000+0  00000+0 0  9997
2 29236   0.0257 135.6290 0002673 324.4587 156.0812  1.00271531 73143
EUTELSAT 33F            
1 29270U 06032A   26185.22875738  .00000167  00000+0  00000+0 0  9997
2 29270   1.7028  82.0661 0003623  20.7124 294.8974  1.00273488 47471
